{
  "norad_id": 47242,
  "name": "IPM 2 & BREEZE-M R/B",
  "history": [
    {
      "epoch": "2026-03-28T16:40:24.421440Z",
      "apogee_km": 37605.73625698646,
      "perigee_km": 36876.46880839378,
      "latitude_deg": 7.518401273721035e-06,
      "longitude_deg": 1.7123820898268278,
      "height_km": 37195.222896275925,
      "semi_major_axis_km": 43619.239532690124,
      "eccentricity": 0.00835947,
      "inclination_deg": 5.1445,
      "raan_deg": 77.6885,
      "arg_perigee_deg": 276.8125,
      "mean_anomaly_deg": 82.4523,
      "mean_motion_rev_day": 0.95298404
    },
    {
      "epoch": "2026-03-28T16:40:24.457728Z",
      "apogee_km": 37605.75034364314,
      "perigee_km": 36876.45411145422,
      "latitude_deg": 1.0903115720571076e-05,
      "longitude_deg": 1.7124686753941285,
      "height_km": 37195.2228181882,
      "semi_major_axis_km": 43619.239227548685,
      "eccentricity": 0.0083598,
      "inclination_deg": 5.1445,
      "raan_deg": 77.6887,
      "arg_perigee_deg": 276.8122,
      "mean_anomaly_deg": 82.4526,
      "mean_motion_rev_day": 0.95298405
    },
    {
      "epoch": "2026-03-28T16:40:24.532896Z",
      "apogee_km": 37605.762300030234,
      "perigee_km": 36876.443375632916,
      "latitude_deg": 4.446355743113839e-06,
      "longitude_deg": 1.7123889458523558,
      "height_km": 37195.23534240786,
      "semi_major_axis_km": 43619.23983783158,
      "eccentricity": 0.00836006,
      "inclination_deg": 5.1444,
      "raan_deg": 77.689,
      "arg_perigee_deg": 276.81,
      "mean_anomaly_deg": 82.4547,
      "mean_motion_rev_day": 0.95298403
    },
    {
      "epoch": "2026-03-29T17:51:25.496640Z",
      "apogee_km": 37605.72053402784,
      "perigee_km": 36876.46805371809,
      "latitude_deg": -9.197022344521652e-07,
      "longitude_deg": -17.077470740496334,
      "height_km": 37194.99220823701,
      "semi_major_axis_km": 43619.23129387297,
      "eccentricity": 0.0083593,
      "inclination_deg": 5.1474,
      "raan_deg": 77.6749,
      "arg_perigee_deg": 276.8372,
      "mean_anomaly_deg": 82.441,
      "mean_motion_rev_day": 0.95298431
    },
    {
      "epoch": "2026-03-30T19:02:24.016128Z",
      "apogee_km": 37605.76062482403,
      "perigee_km": 36876.5420859563,
      "latitude_deg": -1.9632286835861367e-06,
      "longitude_deg": -35.8678468576618,
      "height_km": 37194.70800948816,
      "semi_major_axis_km": 43619.28835539017,
      "eccentricity": 0.0083589,
      "inclination_deg": 5.1503,
      "raan_deg": 77.6613,
      "arg_perigee_deg": 276.8626,
      "mean_anomaly_deg": 82.419,
      "mean_motion_rev_day": 0.95298244
    },
    {
      "epoch": "2026-03-30T19:02:24.114624Z",
      "apogee_km": 37605.78453762648,
      "perigee_km": 36876.520614292356,
      "latitude_deg": -6.716066654009234e-06,
      "longitude_deg": -35.86800428745238,
      "height_km": 37194.688329050485,
      "semi_major_axis_km": 43619.289575959425,
      "eccentricity": 0.00835942,
      "inclination_deg": 5.1502,
      "raan_deg": 77.6616,
      "arg_perigee_deg": 276.8654,
      "mean_anomaly_deg": 82.4161,
      "mean_motion_rev_day": 0.9529824
    },
    {
      "epoch": "2026-03-31T20:13:20.040384Z",
      "apogee_km": 37605.86154840314,
      "perigee_km": 36876.64133630158,
      "latitude_deg": -5.9924388367806885e-06,
      "longitude_deg": -54.659875852584015,
      "height_km": 37194.38475986549,
      "semi_major_axis_km": 43619.38844235236,
      "eccentricity": 0.0083589,
      "inclination_deg": 5.1532,
      "raan_deg": 77.648,
      "arg_perigee_deg": 276.8866,
      "mean_anomaly_deg": 82.3867,
      "mean_motion_rev_day": 0.95297916
    },
    {
      "epoch": "2026-04-01T21:24:13.928832Z",
      "apogee_km": 37605.94861572366,
      "perigee_km": 36876.75810580355,
      "latitude_deg": -1.3874475783571047e-05,
      "longitude_deg": -73.45337709459835,
      "height_km": 37194.007328337575,
      "semi_major_axis_km": 43619.49036076361,
      "eccentricity": 0.00835854,
      "inclination_deg": 5.1561,
      "raan_deg": 77.6349,
      "arg_perigee_deg": 276.9128,
      "mean_anomaly_deg": 82.3419,
      "mean_motion_rev_day": 0.95297582
    }
  ]
}